54135,ONEWEB-0517,2022,109.11,148.0,+,87.91,Active,1,LEO,India,UK,Commercial,Communications,PSLV,1 54135U 22138Y   24100.92748807  .00000023  00000+0  25077-4 0  9995,2 54135  87.9092 103.8525 0002168  76.9058 283.2317 13.19729808 71542,13.19729808,0.0002168,LEO
54136,ONEWEB-0518,2022,109.11,148.0,+,87.91,Active,1,LEO,India,UK,Commercial,Communications,PSLV,1 54136U 22138Z   24100.94645387  .00000100  00000+0  21775-3 0  9993,2 54136  87.9103 103.8575 0001945  84.8032 275.3322 13.19726114 71548,13.19726114,0.0001945,LEO
54137,ONEWEB-0519,2022,109.11,148.0,+,87.91,Active,1,LEO,India,UK,Commercial,Communications,PSLV,1 54137U 22138AA  24100.74427823 -.00000017  00000+0 -75276-4 0  9990,2 54137  87.9094 103.8853 0001712  77.0965 283.0359 13.19725760 71528,13.1972576,0.0001712,LEO
54138,ONEWEB-0520,2022,109.11,148.0,+,87.91,Active,1,LEO,India,UK,Commercial,Communications,PSLV,1 54138U 22138AB  24101.46137063 -.00000007  00000+0 -50995-4 0  9995,2 54138  87.9094 103.7447 0001387  87.1838 272.9453 13.19724002 72471,13.19724002,0.0001387,LEO
54139,ONEWEB-0521,2022,109.11,148.0,+,87.91,Active,1,LEO,India,UK,Commercial,Communications,PSLV,1 54139U 22138AC  24100.73637296  .00000090  00000+0  19290-3 0  9990,2 54139  87.9093 103.8836 0002139  84.0150 276.1227 13.19723979 71457,13.19723979,0.0002139,LEO
54140,ONEWEB-0522,2022,109.11,148.0,+,87.91,Active,1,LEO,India,UK,Commercial,Communications,PSLV,1 54140U 22138AD  24101.39818988  .00000006  00000+0 -16313-4 0  9996,2 54140  87.9092 103.7531 0001822  91.8505 268.2836 13.19724718 72458,13.19724718,0.0001822,LEO
54141,ONEWEB-0523,2022,109.03,148.0,+,87.92,Active,1,LEO,India,UK,Commercial,Communications,PSLV,1 54141U 22138AE  24101.38723809  .00000048  00000+0  87114-4 0  9995,2 54141  87.9165  73.1857 0002853  91.8885 268.2575 13.20769343 74869,13.20769343,0.0002853,LEO
54142,ONEWEB-0524,2022,109.03,148.0,+,87.92,Active,1,LEO,India,UK,Commercial,Communications,PSLV,1 54142U 22138AF  24101.37619343  .00000060  00000+0  11606-3 0  9998,2 54142  87.9160  73.1918 0002346 114.4058 245.7320 13.20770546 74869,13.20770546,0.0002346,LEO
